[{"OBJECT_NAME":"COSMO-SKYMED 4","OBJECT_ID":"2010-060A","EPOCH":"2026-03-10T00:01:02.517312","MEAN_MOTION":14.82164751,"ECCENTRICITY":0.00013936,"INCLINATION":97.8865,"RA_OF_ASC_NODE":254.0323,"ARG_OF_PERICENTER":85.3865,"MEAN_ANOMALY":274.7507,"EPHEMERIS_TYPE":0,"CLASSIFICATION_TYPE":"U","NORAD_CAT_ID":37216,"ELEMENT_SET_NO":999,"REV_AT_EPOCH":82987,"BSTAR":0.00016215676,"MEAN_MOTION_DOT":1.239e-5,"MEAN_MOTION_DDOT":0},{"OBJECT_NAME":"SL-14 R\/B","OBJECT_ID":"1986-046B","EPOCH":"2026-03-09T12:54:35.152704","MEAN_MOTION":14.85590147,"ECCENTRICITY":0.00219619,"INCLINATION":82.4783,"RA_OF_ASC_NODE":80.3252,"ARG_OF_PERICENTER":225.8935,"MEAN_ANOMALY":134.0474,"EPHEMERIS_TYPE":0,"CLASSIFICATION_TYPE":"U","NORAD_CAT_ID":16792,"ELEMENT_SET_NO":999,"REV_AT_EPOCH":12638,"BSTAR":6.3515191e-5,"MEAN_MOTION_DOT":5.75e-6,"MEAN_MOTION_DDOT":0}]
